STARLINK-36587          
1 67532U 26014A   26050.63505279  .00264804  00000+0  13384-2 0  9990
2 67532  97.2829 294.7172 0000699  96.7399 263.3949 15.80868449  5735
STARLINK-36417          
1 67533U 26014B   26051.12942431  .00248068  00000+0  16077-2 0  9997
2 67533  97.2832 295.1128 0001156  74.2141 285.9252 15.75311015  5802
STARLINK-36576          
1 67534U 26014C   26050.64873270  .00113442  00000+0  75065-3 0  9998
2 67534  97.2829 294.6970 0003028 110.1377 250.0214 15.75208548  5738
STARLINK-36574          
1 67535U 26014D   26051.16670139 -.00012245  00000+0 -81356-4 0  9998
2 67535  97.2841 295.2681 0003240 104.7033  16.6366 15.75178175  5874
STARLINK-36572          
1 67536U 26014E   26051.17919590  .00215758  00000+0  14053-2 0  9997
2 67536  97.2843 295.1999 0001966  70.0301 290.1176 15.75285134  5810
STARLINK-36561          
1 67537U 26014F   26051.12166517  .00290169  00000+0  18710-2 0  9999
2 67537  97.2837 295.1226 0001704  65.6000 294.5443 15.75312394  5806
STARLINK-36397          
1 67538U 26014G   26051.12555154  .00306984  00000+0  19758-2 0  9995
2 67538  97.2848 295.1191 0002465  63.3287 296.8230 15.75307830  5805
STARLINK-36573          
1 67539U 26014H   26051.16670139 -.00092386  00000+0 -62403-3 0  9997
2 67539  97.2847 295.2572 0001418  82.0359  17.2739 15.75234054  5877
STARLINK-36585          
1 67540U 26014J   26051.11743030  .00305344  00000+0  19646-2 0  9994
2 67540  97.2834 295.1268 0001710  50.6874 309.4542 15.75320865  5801
STARLINK-36579          
1 67541U 26014K   26051.10966122  .00265746  00000+0  17191-2 0  9997
2 67541  97.2835 295.1398 0000861  19.9696 340.1603 15.75304903  5808
STARLINK-35934          
1 67542U 26014L   26051.16670139  .00018407  00000+0  12413-3 0  9997
2 67542  97.2840 295.2816 0001692 104.0847  51.2476 15.75166464  5860
STARLINK-36581          
1 67543U 26014M   26050.57533086  .00280088  00000+0  18091-2 0  9994
2 67543  97.2832 294.6422 0002531  95.7420 264.4134 15.75299814  5724
STARLINK-36565          
1 67544U 26014N   26050.64484400  .00082948  00000+0  55217-3 0  9995
2 67544  97.2836 294.7027 0002279  84.0426 276.1099 15.75164467  5733
STARLINK-36583          
1 67545U 26014P   26051.17707167  .00147649  00000+0  97275-3 0  9993
2 67545  97.2841 295.1994 0001351  96.0747 264.0672 15.75213873  5815
STARLINK-36580          
1 67546U 26014Q   26051.15907479  .00271689  00000+0  17598-2 0  9991
2 67546  97.2837 295.2256 0001383  55.1283 305.0112 15.75258334  5815
STARLINK-36584          
1 67547U 26014R   26051.14143624  .00234381  00000+0  15233-2 0  9997
2 67547  97.2833 295.2497 0002001  70.3482 289.7999 15.75283708  5811
STARLINK-36586          
1 67548U 26014S   26050.61763250  .00420849  00000+0  20896-2 0  9999
2 67548  97.2832 294.7386 0001788  97.2879 262.8592 15.80857826  5737
STARLINK-36564          
1 67549U 26014T   26050.91307867  .00153788  00000+0  10108-2 0  9991
2 67549  97.2841 294.9462 0002204 111.6485 248.5015 15.75251115  5715
STARLINK-36563          
1 67550U 26014U   26051.09942765  .00320888  00000+0  20600-2 0  9990
2 67550  97.2843 295.1532 0001393   7.5249 352.6037 15.75329155  5800
STARLINK-36566          
1 67551U 26014V   26051.16083692  .00053277  00000+0  35566-3 0  9997
2 67551  97.2853 295.2257 0001622  92.3204 267.8246 15.75201307  5802
STARLINK-36567          
1 67552U 26014W   26051.10578374  .00346009  00000+0  22160-2 0  9991
2 67552  97.2845 295.1408 0001533  53.2630 306.8776 15.75314856  5795
STARLINK-36569          
1 67553U 26014X   26051.14319468  .00333056  00000+0  21403-2 0  9990
2 67553  97.2843 295.2449 0001314  56.0980 304.0410 15.75271439  5802
STARLINK-36395          
1 67554U 26014Y   26051.10013355  .00289183  00000+0  18645-2 0  9998
2 67554  97.2848 295.1491 0001851   6.6453 353.4836 15.75316938  5798
STARLINK-36559          
1 67555U 26014Z   26050.91096087  .00107780  00000+0  71310-3 0  9991
2 67555  97.2844 294.9481 0001461  90.6284 269.5149 15.75231656  5767
MR-2                    
1 67556U 26015A   26051.10759638  .00000062  00000+0  75402-4 0  9995
2 67556  88.9961 280.4507 0004983  69.9343 290.2345 13.52686797  3884
MR-1                    
1 67557U 26015B   26051.10811932  .00000069  00000+0  85572-4 0  9998
2 67557  88.9959 280.4508 0005041  68.8191 291.3500 13.52661986  3886
ELECTRON R/B            
1 67558U 26015C   26051.08748863  .06428351 -16024-5  98486-3 0  9999
2 67558  88.9528 279.5043 0200554 161.5115 199.3602 15.96592197  4355
ELECTRON KICK STAGE R/B 
1 67559U 26015D   26051.13156500  .00045045 -17849-6  75267-3 0  9995
2 67559  89.0490 279.9881 0526746 234.5729 120.5227 14.68718358  4217
STARLINK-36426          
1 67560U 26014AA  26051.13719984  .00268693  00000+0  17376-2 0  9992
2 67560  97.2827 295.2552 0001684  59.3824 300.7607 15.75304837  5800
STARLINK-36621          
1 67561U 26016A   26051.12954083  .00182661  00000+0  11968-2 0  9996
2 67561  97.2821 110.6668 0001762 105.5908 254.5552 15.75241098  4035
STARLINK-36398          
1 67562U 26016B   26051.13694807  .00159715  00000+0  10510-2 0  9999
2 67562  97.2822 110.6544 0002827  86.7328 273.4261 15.75203641  4038
STARLINK-36403          
1 67563U 26016C   26051.09314401  .00468052  00000+0  22928-2 0  9997
2 67563  97.2833 110.7174 0001820 136.9741 223.1670 15.81033057  4035
STARLINK-36593          
1 67564U 26016D   26051.16670139 -.00007413  00000+0 -48873-4 0  9990
2 67564  97.2838 110.7901 0001787  78.6881 323.9874 15.75189272  5173
STARLINK-35725          
1 67565U 26016E   26051.11718962  .00218190  00000+0  14249-2 0  9995
2 67565  97.2819 110.6843 0000537  16.5330 343.5952 15.75217633  4031
STARLINK-36394          
1 67566U 26016F   26051.11895393  .00214612  00000+0  14019-2 0  9990
2 67566  97.2830 110.6788 0000901  47.4868 312.6473 15.75222260  4034
STARLINK-36352          
1 67567U 26016G   26051.15156403  .00206865  00000+0  10552-2 0  9996
2 67567  97.2842 110.7883 0003170   0.2657 359.8612 15.80814674  4040
STARLINK-36435          
1 67568U 26016H   26051.14931353  .00217315  00000+0  11062-2 0  9990
2 67568  97.2831 110.7914 0002657 358.7273   1.3988 15.80835383  4043
STARLINK-36575          
1 67569U 26016J   26051.14810244  .00275046  00000+0  13827-2 0  9992
2 67569  97.2836 110.7951 0001926 124.6764 235.4686 15.80960408  4045
STARLINK-36562          
1 67570U 26016K   26051.14722820 -.00415678  00000+0 -23105-2 0  9995
2 67570  97.2830 110.7958 0001320  83.5855 276.5563 15.80470628  4040
STARLINK-36578          
1 67571U 26016L   26051.12107131  .00238473  00000+0  15518-2 0  9999
2 67571  97.2826 110.6775 0000404 137.4154 222.7142 15.75244298  4036
STARLINK-36350          
1 67572U 26016M   26051.11330652  .00305981  00000+0  19701-2 0  9992
2 67572  97.2831 110.6869 0001532 110.5225 249.6205 15.75301843  4039
STARLINK-36588          
1 67573U 26016N   26051.11542514  .00307357  00000+0  19759-2 0  9997
2 67573  97.2826 110.6846 0002543 139.0872 221.0585 15.75334120  4035
STARLINK-36594          
1 67574U 26016P   26050.12965032  .00244760  00000+0  12343-2 0  9992
2 67574  97.2822 109.7293 0002289 128.5692 231.5781 15.80970017  3880
STARLINK-36400          
1 67575U 26016Q   26051.09778084  .00309537  00000+0  19908-2 0  9997
2 67575  97.2840 110.7086 0001672  71.5551 288.5896 15.75318196  4034
STARLINK-36591          
1 67576U 26016R   26051.16670139 -.00004362  00000+0 -28420-4 0  9999
2 67576  97.2854 110.8113 0001118  94.1586   4.5291 15.75169028  5232
STARLINK-36590          
1 67577U 26016S   26051.10166301  .00341188  00000+0  21871-2 0  9994
2 67577  97.2838 110.7023 0000944 114.6421 245.4942 15.75306051  4031
STARLINK-36613          
1 67578U 26016T   26051.13834027  .00128573  00000+0  65999-3 0  9996
2 67578  97.2828 110.8058 0001724  89.9252 270.2214 15.80886522  4044
STARLINK-36571          
1 67579U 26016U   26050.53380078  .00340328  00000+0  21823-2 0  9993
2 67579  97.2837 110.0973 0001192  33.0010 327.1330 15.75301908  3947
STARLINK-36612          
1 67580U 26016V   26050.88255177  .00332620  00000+0  16629-2 0  9998
2 67580  97.2829 110.5420 0001572 120.5363 239.6061 15.80934206  4002
STARLINK-36632          
1 67581U 26016W   26050.64886010  .00235509  00000+0  15340-2 0  9996
2 67581  97.2839 110.2488 0002978  43.1889 316.9609 15.75228137  3963
STARLINK-36609          
1 67582U 26016X   26050.72825905  .00303409  00000+0  19609-2 0  9999
2 67582  97.2839 110.2926 0000965 136.8573 223.2768 15.75222248  3979
STARLINK-36577          
1 67583U 26016Y   26050.75447702  .00395908  00000+0  19707-2 0  9992
2 67583  97.2830 110.4098 0001918 134.2802 225.8624 15.80867169  3982
STARLINK-36419          
1 67584U 26016Z   26050.91670139 -.00074470  00000+0 -50244-3 0  9995
2 67584  97.2848 110.5703 0001068  75.8903  92.0955 15.75205420  5190
STARLINK-36560          
1 67585U 26016AA  26050.74875843  .00420703  00000+0  20884-2 0  9994
2 67585  97.2825 110.4188 0001857 155.5025 204.6332 15.80863334  3984
NAVSTAR 85 (USA 581)    
1 67588U 26017A   26048.53936881  .00000028  00000+0  00000+0 0  9991
2 67588  55.0081  93.5564 0000946  45.2724 314.8210  2.00561228429213
STARLINK-36641          
1 67589U 26018A   26051.15046391  .00061200  00000+0  40798-3 0  9994
2 67589  97.2833 116.0449 0000760  58.6771 301.4569 15.75205542  4548
STARLINK-36376          
1 67590U 26018B   26051.16670139 -.00062263  00000+0 -41967-3 0  9991
2 67590  97.2838 116.1067 0001406  86.6232 107.5475 15.75186559  4573
STARLINK-36391          
1 67591U 26018C   26051.12320012  .00171910  00000+0  87637-3 0  9992
2 67591  97.2831 116.0820 0001500 124.8793 235.2616 15.80922744  4548
STARLINK-36603          
1 67592U 26018D   26051.16670139 -.00009932  00000+0 -65799-4 0  9997
2 67592  97.2837 116.1176 0001340  87.8357 130.3019 15.75188759  4531
